OBJECT_NAME,OBJECT_ID,EPOCH,MEAN_MOTION,ECCENTRICITY,INCLINATION,RA_OF_ASC_NODE,ARG_OF_PERICENTER,MEAN_ANOMALY,EPHEMERIS_TYPE,CLASSIFICATION_TYPE,NORAD_CAT_ID,ELEMENT_SET_NO,REV_AT_EPOCH,BSTAR,MEAN_MOTION_DOT,MEAN_MOTION_DDOT
STARLINK-33794,2025-092S,2026-06-09T07:17:02.467392,15.27596892,.00035485,42.9984,15.3489,264.0501,95.9946,0,U,63820,999,6262,.54824047E-3,.14864E-3,0
STARLINK-34047,2025-092T,2026-06-09T07:11:28.675680,15.27568184,.0002087,42.9983,15.3157,268.8231,91.2382,0,U,63821,999,6267,.50293044E-3,.13598E-3,0
STARLINK-34094,2025-092U,2026-06-09T07:26:59.112096,15.27603674,.00008953,43.0034,11.9060,256.5005,103.5747,0,U,63822,999,6271,.54899624E-3,.14886E-3,0
STARLINK-34043,2025-092V,2026-06-09T07:30:28.409184,15.27597100,.00014874,43.0102,11.0572,273.8928,86.1753,0,U,63823,999,6267,.52948718E-3,.14344E-3,0
STARLINK-34025,2025-092W,2026-06-08T20:52:53.860512,15.27584841,.00026906,43.0028,17.2468,264.4261,95.6284,0,U,63824,999,6250,.62208897E-3,.16899E-3,0
STARLINK-33874,2025-092X,2026-06-09T07:04:05.255328,15.27597653,.00022214,42.9986,15.2765,267.9219,92.1379,0,U,63825,999,6267,.56443053E-3,.15311E-3,0
STARLINK-33781,2025-092Y,2026-06-09T07:30:00.746496,15.27569673,.00004285,43.0027,15.4096,53.9463,306.1428,0,U,63826,999,6267,.90393028E-3,.24687E-3,0
STARLINK-33891,2025-092Z,2026-06-09T12:21:43.153920,15.27600597,.00013108,43.0015,14.3454,222.5425,137.5325,0,U,63827,999,6259,.56838816E-3,.15421E-3,0
STARLINK-33903,2025-092AA,2026-06-09T06:56:41.129952,15.27596862,.00019498,43.0000,15.2314,265.4808,94.5821,0,U,63828,999,6267,.52173611E-3,.1413E-3,0
STARLINK-33889,2025-092AB,2026-06-08T21:11:24.024480,15.27600450,.00015384,42.9990,17.3480,284.0694,75.9986,0,U,63829,999,6250,.83579957E-3,.22823E-3,0
STARLINK-33984,2025-092AC,2026-06-08T21:22:29.858304,15.27603594,.00036576,42.9978,17.3929,284.3078,75.7367,0,U,63830,999,6256,.55464465E-3,.15044E-3,0
STARLINK-33940,2025-092AD,2026-06-09T07:02:13.891776,15.27602853,.00026435,42.9897,15.2685,277.6188,82.4363,0,U,63831,999,6267,.51826797E-3,.14037E-3,0
STARLINK-33978,2025-092AE,2026-06-08T21:15:05.236128,15.27577889,.00038117,42.9983,17.3676,107.0391,253.0879,0,U,63832,999,6261,.66838751E-3,.18177E-3,0
STARLINK-34018,2025-093A,2026-06-09T09:08:08.071008,15.27571980,.00014451,43.0016,280.2171,268.7249,91.3437,0,U,63836,999,6199,.59597436E-3,.1617E-3,0
STARLINK-34053,2025-093B,2026-06-09T01:13:38.070048,15.27593453,.00039554,43.0030,282.0393,263.4339,96.6063,0,U,63837,999,6188,.51379741E-3,.13911E-3,0
STARLINK-34042,2025-093C,2026-06-09T00:22:31.865376,15.27603684,.00018096,42.9975,278.3056,265.4180,94.6465,0,U,63838,999,6198,.65791083E-3,.17899E-3,0
STARLINK-34040,2025-093D,2026-06-09T00:55:09.197760,15.27586542,.00018522,42.9988,281.9402,269.0249,91.0390,0,U,63839,999,6194,.50587217E-3,.13687E-3,0
STARLINK-33990,2025-093E,2026-06-09T00:58:50.265120,15.27610427,.00030118,42.9961,281.9508,264.1404,95.9104,0,U,63840,999,6172,.83509882E-3,.22812E-3,0
STARLINK-34056,2025-093F,2026-06-09T01:26:35.801376,15.27595697,.0002469,43.0025,282.1071,265.4612,94.5958,0,U,63841,999,6172,.5815963E-3,.15784E-3,0
STARLINK-34026,2025-093G,2026-06-09T01:28:27.225408,15.27593252,.00012198,43.0029,282.1166,269.2236,90.8476,0,U,63842,999,6172,.51459708E-3,.13931E-3,0
STARLINK-33777,2025-093H,2026-06-09T00:34:47.251200,15.27601291,.00022286,42.9998,281.8292,270.2527,89.8070,0,U,63843,999,6194,.5761353E-3,.15636E-3,0
STARLINK-34041,2025-093J,2026-06-09T01:35:51.289440,15.27592071,.00016805,43.0042,282.1518,259.1220,100.9442,0,U,63844,999,6194,.57736221E-3,.15665E-3,0
STARLINK-34011,2025-093K,2026-06-07T15:15:30.681792,15.27585862,.00003591,43.0013,290.3436,119.3474,240.7414,0,U,63845,999,6150,.78054229E-3,.21283E-3,0
STARLINK-34044,2025-093L,2026-06-09T00:36:38.314944,15.27611106,.00017106,43.0009,281.8412,284.2175,75.8487,0,U,63846,999,6172,.65845127E-3,.17918E-3,0
STARLINK-34037,2025-093M,2026-06-09T00:51:26.987328,15.27621543,.00028226,42.9928,281.9213,266.0764,93.9764,0,U,63847,999,6194,.10140549E-2,.27785E-3,0
STARLINK-34010,2025-093N,2026-06-09T01:00:41.696928,15.27591036,.00017831,42.9998,281.9674,260.1188,99.9462,0,U,63848,999,6172,.46256819E-3,.12493E-3,0
STARLINK-34009,2025-093P,2026-06-09T14:02:23.597376,15.27590993,.00024322,42.9978,275.6970,269.3295,90.7278,0,U,63849,999,6206,.52098558E-3,.14107E-3,0
STARLINK-33958,2025-093Q,2026-06-09T01:37:42.590784,15.27595262,.00010563,42.9991,282.1608,251.3445,108.7292,0,U,63850,999,6178,.6824565E-3,.18574E-3,0
STARLINK-33776,2025-093R,2026-06-09T00:42:11.205504,15.27604208,.00016576,43.0008,281.8653,284.5050,75.5618,0,U,63851,999,6193,.64719831E-3,.17603E-3,0
STARLINK-34032,2025-093T,2026-06-09T00:45:53.361504,15.27592901,.00018333,42.9992,281.8690,270.0203,90.0439,0,U,63853,999,6194,.50911436E-3,.13779E-3,0
STARLINK-34015,2025-093U,2026-06-07T15:09:51.559200,15.27629694,.00009665,43.0199,290.2926,230.7486,129.3281,0,U,63854,999,6156,-.18616668E-2,-.51215E-3,0
STARLINK-33969,2025-093V,2026-06-09T00:56:59.494272,15.27588772,.00015035,42.9998,281.9264,259.9285,100.1397,0,U,63855,999,6172,.38607053E-3,.1038E-3,0
STARLINK-34002,2025-093W,2026-06-09T01:09:58.469760,15.27590910,.00008827,43.0077,281.9977,332.8771,27.2034,0,U,63856,999,6172,.95093674E-3,.26006E-3,0
STARLINK-33999,2025-093X,2026-06-09T00:49:35.110560,15.27590772,.00016523,43.0040,281.8734,261.5104,98.5560,0,U,63857,999,6194,.4815934E-3,.13018E-3,0
STARLINK-33976,2025-093Y,2026-06-08T15:37:35.882400,15.27597029,.00014271,43.0000,284.1578,274.3465,85.7224,0,U,63858,999,6172,.89700039E-3,.24516E-3,0
STARLINK-33821,2025-093Z,2026-06-09T01:22:52.633632,15.27574435,.00017715,43.0005,282.0377,263.7464,96.3186,0,U,63859,999,6192,.72366395E-3,.19702E-3,0
STARLINK-33888,2025-093AA,2026-06-09T07:28:24.769056,15.27598277,.00014548,43.0003,280.5282,264.7018,95.3668,0,U,63860,999,6198,.54271827E-3,.1471E-3,0
STARLINK-33896,2025-093AB,2026-06-09T08:00:03.000384,15.27576622,.00013695,43.0023,280.4734,275.6262,177.0905,0,U,63861,999,588,.83981262E-3,.22917E-3,0
STARLINK-33878,2025-093AC,2026-06-09T07:37:38.008992,15.27636561,.00016022,43.0019,280.5448,256.5502,103.5172,0,U,63862,999,6197,.95859535E-3,.26256E-3,0
STARLINK-33954,2025-093AD,2026-06-09T06:14:38.529024,15.27592954,.000113,42.9989,280.9996,278.7317,81.3406,0,U,63863,999,6175,.64906E-3,.17649E-3,0
STARLINK-33863,2025-094A,2026-06-08T23:40:48.119520,14.98351006,.00022429,70.0029,4.4718,262.1799,97.9105,0,U,63864,999,6087,.65081679E-3,.7685E-4,0
STARLINK-33897,2025-094B,2026-06-09T06:59:24.459648,14.98334721,.00029744,70.0019,3.5233,268.6089,91.4730,0,U,63865,999,6114,.20616461E-3,.2368E-4,0
STARLINK-34022,2025-094C,2026-06-09T07:17:40.276032,14.98318768,.00024275,70.0028,3.5610,265.5949,94.4933,0,U,63866,999,6092,.24755007E-3,.2861E-4,0
STARLINK-33979,2025-094D,2026-06-09T07:05:26.104128,14.98342575,.00028492,70.0031,3.5382,264.6727,95.4107,0,U,63867,999,6092,.54386884E-3,.6404E-4,0
STARLINK-34007,2025-094E,2026-06-08T23:34:48.167616,14.98334765,.00026989,70.0018,4.4534,269.5162,90.5688,0,U,63868,999,6087,.22706298E-3,.2618E-4,0
STARLINK-34006,2025-094F,2026-06-08T20:58:48.037440,14.98333525,.00023201,70.0024,4.4739,269.4449,90.6444,0,U,63869,999,6086,.2074139E-3,.2383E-4,0
STARLINK-33986,2025-094G,2026-06-09T06:47:37.673088,14.98342619,.00025594,70.0032,3.4901,263.9209,96.1659,0,U,63870,999,6092,.16750776E-3,.1907E-4,0
STARLINK-34013,2025-094H,2026-06-09T06:29:21.130944,14.98333454,.00029617,70.0017,3.4541,269.7500,90.3319,0,U,63871,999,6092,.10436923E-3,.1153E-4,0
STARLINK-34059,2025-094J,2026-06-09T07:29:27.624192,14.98337347,.0002898,70.0019,3.5985,270.9953,89.0874,0,U,63872,999,6092,.333536E-3,.389E-4,0
STARLINK-33987,2025-094K,2026-06-08T21:04:34.560192,14.98337307,.0002795,70.0022,4.4899,272.8996,87.1843,0,U,63873,999,6086,.47869233E-3,.5624E-4,0
STARLINK-34052,2025-094L,2026-06-09T07:23:27.207456,14.98335997,.00026919,70.0023,3.5804,261.8197,98.2657,0,U,63874,999,6092,.34853442E-3,.4069E-4,0
STARLINK-34023,2025-094M,2026-06-09T00:10:48.728352,14.98326298,.00029687,70.0018,4.1364,270.3452,89.7367,0,U,63875,999,6088,-.17909213E-3,-.2229E-4,0
STARLINK-33778,2025-094P,2026-06-09T07:05:41.192160,14.98335181,.00030407,70.0025,3.5314,264.7782,95.3030,0,U,63877,999,6092,.4169404E-3,.4886E-4,0
STARLINK-33901,2025-094Q,2026-06-09T07:29:42.170496,14.98326559,.00031485,70.0025,3.5885,270.8882,89.1917,0,U,63878,999,6092,.40047744E-3,.4688E-4,0
STARLINK-33812,2025-094R,2026-06-09T06:53:23.884800,14.98333477,.00024903,70.0020,3.5018,269.7430,90.3444,0,U,63879,999,6092,.22041317E-3,.2538E-4,0
STARLINK-33779,2025-094S,2026-06-09T07:17:26.929824,14.98328630,.00028066,70.0024,3.5672,267.8825,92.2013,0,U,63880,999,6092,.40414563E-3,.4732E-4,0
STARLINK-33905,2025-094T,2026-06-09T09:29:36.039264,14.98334988,.00028618,70.0023,3.0843,267.7179,92.3653,0,U,63881,999,6094,.18031184E-3,.2059E-4,0
STARLINK-34003,2025-094U,2026-06-09T12:12:01.687968,15.41051036,.00027436,70.0039,317.7802,277.4122,82.6747,0,U,63882,999,6208,.72380016E-3,.29962E-3,0
STARLINK-33968,2025-094V,2026-06-08T23:35:02.239584,14.98337476,.00029312,70.0025,4.4477,266.9861,93.0963,0,U,63883,999,6087,.27682339E-3,.3212E-4,0
STARLINK-33943,2025-094W,2026-06-08T23:46:46.925760,14.98336692,.00031513,70.0023,4.0779,269.4413,90.6385,0,U,63884,999,6088,.3234879E-3,.377E-4,0
STARLINK-33858,2025-094X,2026-06-09T06:47:23.390304,14.98333925,.00022817,70.0030,3.4907,268.6252,91.4646,0,U,63885,999,6092,.26902577E-3,.3119E-4,0
STARLINK-33885,2025-094Y,2026-06-09T09:35:36.650400,14.98335655,.00026727,70.0020,3.0951,269.7167,90.3686,0,U,63886,999,6094,.24264568E-3,.2804E-4,0
STARLINK-33904,2025-094Z,2026-06-09T11:05:58.482816,14.98336166,.000208,70.0023,2.9107,272.5000,87.5921,0,U,63887,999,6095,.3148453E-3,.3666E-4,0
STARLINK-33981,2025-094AA,2026-06-09T07:11:40.158240,14.98333841,.00023323,70.0019,3.5477,268.3509,91.7383,0,U,63888,999,6092,.27778154E-3,.3223E-4,0
